CCSDS_OMM_VERS = 2.0
CREATION_DATE  = 
ORIGINATOR     = 

OBJECT_NAME    = STARLINK-35700
OBJECT_ID      = 2025-244M
CENTER_NAME    = EARTH
REF_FRAME      = TEME
TIME_SYSTEM    = UTC
MEAN_ELEMENT_THEORY = SGP/SGP4

EPOCH          = 2025-11-14T06:00:02.000160
MEAN_MOTION    = 15.59396675
ECCENTRICITY   = .00010996
INCLINATION    = 53.1597
RA_OF_ASC_NODE = 50.7760
ARG_OF_PERICENTER = 81.9875
MEAN_ANOMALY   = 131.5613

EPHEMERIS_TYPE = 0
CLASSIFICATION_TYPE = U
NORAD_CAT_ID   = 66217
ELEMENT_SET_NO = 999
REV_AT_EPOCH   = 363
BSTAR          = -.28222431E-1
MEAN_MOTION_DOT = -.1993757E-1
MEAN_MOTION_DDOT = 0

CCSDS_OMM_VERS = 2.0
CREATION_DATE  = 
ORIGINATOR     = 

OBJECT_NAME    = STARLINK-35722
OBJECT_ID      = 2025-244N
CENTER_NAME    = EARTH
REF_FRAME      = TEME
TIME_SYSTEM    = UTC
MEAN_ELEMENT_THEORY = SGP/SGP4

EPOCH          = 2025-11-14T06:00:02.000160
MEAN_MOTION    = 15.59389694
ECCENTRICITY   = .00011561
INCLINATION    = 53.1597
RA_OF_ASC_NODE = 50.7720
ARG_OF_PERICENTER = 88.0129
MEAN_ANOMALY   = 127.4573

EPHEMERIS_TYPE = 0
CLASSIFICATION_TYPE = U
NORAD_CAT_ID   = 66218
ELEMENT_SET_NO = 999
REV_AT_EPOCH   = 363
BSTAR          = -.28086532E-1
MEAN_MOTION_DOT = -.1984913E-1
MEAN_MOTION_DDOT = 0

CCSDS_OMM_VERS = 2.0
CREATION_DATE  = 
ORIGINATOR     = 

OBJECT_NAME    = STARLINK-35737
OBJECT_ID      = 2025-244P
CENTER_NAME    = EARTH
REF_FRAME      = TEME
TIME_SYSTEM    = UTC
MEAN_ELEMENT_THEORY = SGP/SGP4

EPOCH          = 2025-11-14T06:00:02.000160
MEAN_MOTION    = 15.59395361
ECCENTRICITY   = .00011491
INCLINATION    = 53.1596
RA_OF_ASC_NODE = 50.7641
ARG_OF_PERICENTER = 86.1834
MEAN_ANOMALY   = 133.1167

EPHEMERIS_TYPE = 0
CLASSIFICATION_TYPE = U
NORAD_CAT_ID   = 66219
ELEMENT_SET_NO = 999
REV_AT_EPOCH   = 379
BSTAR          = -.28192885E-1
MEAN_MOTION_DOT = -.1991875E-1
MEAN_MOTION_DDOT = 0

CCSDS_OMM_VERS = 2.0
CREATION_DATE  = 
ORIGINATOR     = 

OBJECT_NAME    = STARLINK-35677
OBJECT_ID      = 2025-244Q
CENTER_NAME    = EARTH
REF_FRAME      = TEME
TIME_SYSTEM    = UTC
MEAN_ELEMENT_THEORY = SGP/SGP4

EPOCH          = 2025-11-14T06:00:02.000160
MEAN_MOTION    = 15.59396589
ECCENTRICITY   = .00011727
INCLINATION    = 53.1598
RA_OF_ASC_NODE = 50.7562
ARG_OF_PERICENTER = 90.1742
MEAN_ANOMALY   = 132.9585

EPHEMERIS_TYPE = 0
CLASSIFICATION_TYPE = U
NORAD_CAT_ID   = 66220
ELEMENT_SET_NO = 999
REV_AT_EPOCH   = 363
BSTAR          = -.28195473E-1
MEAN_MOTION_DOT = -.1992134E-1
MEAN_MOTION_DDOT = 0

CCSDS_OMM_VERS = 2.0
CREATION_DATE  = 
ORIGINATOR     = 

OBJECT_NAME    = STARLINK-35704
OBJECT_ID      = 2025-244R
CENTER_NAME    = EARTH
REF_FRAME      = TEME
TIME_SYSTEM    = UTC
MEAN_ELEMENT_THEORY = SGP/SGP4

EPOCH          = 2025-11-14T06:00:02.000160
MEAN_MOTION    = 15.59388149
ECCENTRICITY   = .00011321
INCLINATION    = 53.1598
RA_OF_ASC_NODE = 50.7518
ARG_OF_PERICENTER = 84.2811
MEAN_ANOMALY   = 140.7732

EPHEMERIS_TYPE = 0
CLASSIFICATION_TYPE = U
NORAD_CAT_ID   = 66221
ELEMENT_SET_NO = 999
REV_AT_EPOCH   = 363
BSTAR          = -.28033183E-1
MEAN_MOTION_DOT = -.1981486E-1
MEAN_MOTION_DDOT = 0

CCSDS_OMM_VERS = 2.0
CREATION_DATE  = 
ORIGINATOR     = 

OBJECT_NAME    = STARLINK-35666
OBJECT_ID      = 2025-244S
CENTER_NAME    = EARTH
REF_FRAME      = TEME
TIME_SYSTEM    = UTC
MEAN_ELEMENT_THEORY = SGP/SGP4

EPOCH          = 2025-11-14T06:00:02.000160
MEAN_MOTION    = 15.59392496
ECCENTRICITY   = .00012212
INCLINATION    = 53.1598
RA_OF_ASC_NODE = 50.7438
ARG_OF_PERICENTER = 90.5566
MEAN_ANOMALY   = 138.3297

EPHEMERIS_TYPE = 0
CLASSIFICATION_TYPE = U
NORAD_CAT_ID   = 66222
ELEMENT_SET_NO = 999
REV_AT_EPOCH   = 374
BSTAR          = -.28133244E-1
MEAN_MOTION_DOT = -.198804E-1
MEAN_MOTION_DDOT = 0

CCSDS_OMM_VERS = 2.0
CREATION_DATE  = 
ORIGINATOR     = 

OBJECT_NAME    = STARLINK-35664
OBJECT_ID      = 2025-244T
CENTER_NAME    = EARTH
REF_FRAME      = TEME
TIME_SYSTEM    = UTC
MEAN_ELEMENT_THEORY = SGP/SGP4

EPOCH          = 2025-11-14T06:00:02.000160
MEAN_MOTION    = 15.59392178
ECCENTRICITY   = .00013517
INCLINATION    = 53.1598
RA_OF_ASC_NODE = 50.7483
ARG_OF_PERICENTER = 90.5083
MEAN_ANOMALY   = 136.4612

EPHEMERIS_TYPE = 0
CLASSIFICATION_TYPE = U
NORAD_CAT_ID   = 66223
ELEMENT_SET_NO = 999
REV_AT_EPOCH   = 374
BSTAR          = -.2810949E-1
MEAN_MOTION_DOT = -.198664E-1
MEAN_MOTION_DDOT = 0

CCSDS_OMM_VERS = 2.0
CREATION_DATE  = 
ORIGINATOR     = 

OBJECT_NAME    = STARLINK-35733
OBJECT_ID      = 2025-244U
CENTER_NAME    = EARTH
REF_FRAME      = TEME
TIME_SYSTEM    = UTC
MEAN_ELEMENT_THEORY = SGP/SGP4

EPOCH          = 2025-11-14T06:00:02.000160
MEAN_MOTION    = 15.59392780
ECCENTRICITY   = .00012323
INCLINATION    = 53.1598
RA_OF_ASC_NODE = 50.7362
ARG_OF_PERICENTER = 87.5185
MEAN_ANOMALY   = 145.1994

EPHEMERIS_TYPE = 0
CLASSIFICATION_TYPE = U
NORAD_CAT_ID   = 66224
ELEMENT_SET_NO = 999
REV_AT_EPOCH   = 363
BSTAR          = -.2808049E-1
MEAN_MOTION_DOT = -.1984798E-1
MEAN_MOTION_DDOT = 0

CCSDS_OMM_VERS = 2.0
CREATION_DATE  = 
ORIGINATOR     = 

OBJECT_NAME    = STARLINK-35734
OBJECT_ID      = 2025-244V
CENTER_NAME    = EARTH
REF_FRAME      = TEME
TIME_SYSTEM    = UTC
MEAN_ELEMENT_THEORY = SGP/SGP4

EPOCH          = 2025-11-14T06:00:02.000160
MEAN_MOTION    = 15.59389233
ECCENTRICITY   = .00011123
INCLINATION    = 53.1598
RA_OF_ASC_NODE = 50.7395
ARG_OF_PERICENTER = 90.8891
MEAN_ANOMALY   = 139.9163

EPHEMERIS_TYPE = 0
CLASSIFICATION_TYPE = U
NORAD_CAT_ID   = 66225
ELEMENT_SET_NO = 999
REV_AT_EPOCH   = 363
BSTAR          = -.28073657E-1
MEAN_MOTION_DOT = -.1984053E-1
MEAN_MOTION_DDOT = 0

CCSDS_OMM_VERS = 2.0
CREATION_DATE  = 
ORIGINATOR     = 

OBJECT_NAME    = STARLINK-34466
OBJECT_ID      = 2025-244W
CENTER_NAME    = EARTH
REF_FRAME      = TEME
TIME_SYSTEM    = UTC
MEAN_ELEMENT_THEORY = SGP/SGP4

EPOCH          = 2025-11-14T06:00:02.000160
MEAN_MOTION    = 15.59388557
ECCENTRICITY   = .00010753
INCLINATION    = 53.1597
RA_OF_ASC_NODE = 50.7313
ARG_OF_PERICENTER = 84.6075
MEAN_ANOMALY   = 150.0305

EPHEMERIS_TYPE = 0
CLASSIFICATION_TYPE = U
NORAD_CAT_ID   = 66226
ELEMENT_SET_NO = 999
REV_AT_EPOCH   = 395
BSTAR          = -.28041145E-1
MEAN_MOTION_DOT = -.1981968E-1
MEAN_MOTION_DDOT = 0

CCSDS_OMM_VERS = 2.0
CREATION_DATE  = 
ORIGINATOR     = 

OBJECT_NAME    = STARLINK-34882
OBJECT_ID      = 2025-244X
CENTER_NAME    = EARTH
REF_FRAME      = TEME
TIME_SYSTEM    = UTC
MEAN_ELEMENT_THEORY = SGP/SGP4

EPOCH          = 2025-11-14T06:00:02.000160
MEAN_MOTION    = 15.59389779
ECCENTRICITY   = .00010534
INCLINATION    = 53.1598
RA_OF_ASC_NODE = 50.7266
ARG_OF_PERICENTER = 87.0247
MEAN_ANOMALY   = 149.5298

EPHEMERIS_TYPE = 0
CLASSIFICATION_TYPE = U
NORAD_CAT_ID   = 66227
ELEMENT_SET_NO = 999
REV_AT_EPOCH   = 395
BSTAR          = -.28070498E-1
MEAN_MOTION_DOT = -.1983853E-1
MEAN_MOTION_DDOT = 0

CCSDS_OMM_VERS = 2.0
CREATION_DATE  = 
ORIGINATOR     = 

OBJECT_NAME    = STARLINK-35731
OBJECT_ID      = 2025-244Y
CENTER_NAME    = EARTH
REF_FRAME      = TEME
TIME_SYSTEM    = UTC
MEAN_ELEMENT_THEORY = SGP/SGP4

EPOCH          = 2025-11-14T06:00:02.000160
MEAN_MOTION    = 15.59388124
ECCENTRICITY   = .00010738
INCLINATION    = 53.1600
RA_OF_ASC_NODE = 50.7229
ARG_OF_PERICENTER = 84.4574
MEAN_ANOMALY   = 154.0145

EPHEMERIS_TYPE = 0
CLASSIFICATION_TYPE = U
NORAD_CAT_ID   = 66228
ELEMENT_SET_NO = 999
REV_AT_EPOCH   = 363
BSTAR          = -.28027876E-1
MEAN_MOTION_DOT = -.1981115E-1
MEAN_MOTION_DDOT = 0

