STARLINK-35700          
1 66217U 25244M   25318.25002315 -.01993757  00000+0 -28222-1 0  9995
2 66217  53.1597  50.7760 0001099  81.9875 131.5613 15.59396675  3634
STARLINK-35722          
1 66218U 25244N   25318.25002315 -.01984913  00000+0 -28087-1 0  9999
2 66218  53.1597  50.7720 0001156  88.0129 127.4573 15.59389694  3637
STARLINK-35737          
1 66219U 25244P   25318.25002315 -.01991875  00000+0 -28193-1 0  9993
2 66219  53.1596  50.7641 0001149  86.1834 133.1167 15.59395361  3791
STARLINK-35677          
1 66220U 25244Q   25318.25002315 -.01992134  00000+0 -28195-1 0  9996
2 66220  53.1598  50.7562 0001172  90.1742 132.9585 15.59396589  3633
STARLINK-35704          
1 66221U 25244R   25318.25002315 -.01981486  00000+0 -28033-1 0  9996
2 66221  53.1598  50.7518 0001132  84.2811 140.7732 15.59388149  3636
STARLINK-35666          
1 66222U 25244S   25318.25002315 -.01988040  00000+0 -28133-1 0  9991
2 66222  53.1598  50.7438 0001221  90.5566 138.3297 15.59392496  3745
STARLINK-35664          
1 66223U 25244T   25318.25002315 -.01986640  00000+0 -28109-1 0  9999
2 66223  53.1598  50.7483 0001351  90.5083 136.4612 15.59392178  3741
STARLINK-35733          
1 66224U 25244U   25318.25002315 -.01984798  00000+0 -28080-1 0  9990
2 66224  53.1598  50.7362 0001232  87.5185 145.1994 15.59392780  3632
STARLINK-35734          
1 66225U 25244V   25318.25002315 -.01984053  00000+0 -28074-1 0  9998
2 66225  53.1598  50.7395 0001112  90.8891 139.9163 15.59389233  3635
STARLINK-34466          
1 66226U 25244W   25318.25002315 -.01981968  00000+0 -28041-1 0  9995
2 66226  53.1597  50.7313 0001075  84.6075 150.0305 15.59388557  3953
STARLINK-34882          
1 66227U 25244X   25318.25002315 -.01983853  00000+0 -28070-1 0  9993
2 66227  53.1598  50.7266 0001053  87.0247 149.5298 15.59389779  3957
STARLINK-35731          
1 66228U 25244Y   25318.25002315 -.01981115  00000+0 -28028-1 0  9996
2 66228  53.1600  50.7229 0001073  84.4574 154.0145 15.59388124  3637
